STARLINK-31494          
1 59238U 24049H   24313.89097330  .00000066  00000+0  88563-5 0  9994
2 59238  43.0028  19.7017 0000937 266.8167  93.2582 15.40672136 37897
STARLINK-31303          
1 59239U 24049J   24313.91073930 -.00003333  00000+0 -72684-4 0  9996
2 59239  43.0037  17.2057 0001356 280.9606  79.1098 15.40646804 37995
STARLINK-31408          
1 59240U 24049K   24313.88860887  .00000294  00000+0  14333-4 0  9997
2 59240  43.0033  18.8186 0002514 255.8801 104.1777 15.40649865 37957
STARLINK-31427          
1 59241U 24049L   24314.18136014 -.00006492  00000+0 -14838-3 0  9997
2 59241  43.0016  16.6816 0001250 266.8416  93.2298 15.40678745 38063
STARLINK-31423          
1 59242U 24049M   24314.17478153  .00001461  00000+0  42251-4 0  9990
2 59242  43.0059  17.5229 0002435 265.6453  94.4126 15.40687203 38054
STARLINK-31433          
1 59243U 24049N   24313.87975408  .00004620  00000+0  11779-3 0  9992
2 59243  42.9996  19.6143 0000856 235.0628 125.0148 15.40697008 37969
STARLINK-31285          
1 59244U 24049P   24313.89320776  .00000897  00000+0  28752-4 0  9999
2 59244  43.0012  19.7159 0001784 223.7110 136.3606 15.40687687 37955
STARLINK-31268          
1 59245U 24049Q   24313.89188848 -.00005750  00000+0 -13064-3 0  9996
2 59245  42.9971  13.5623 0001092 175.5324 184.5542 15.40668890 38016
STARLINK-31284          
1 59246U 24049R   24313.49300295  .00002169  00000+0  59074-4 0  9996
2 59246  43.0024  21.8732 0001823 270.3923  89.6725 15.40751254 37881
STARLINK-31424          
1 59247U 24049S   24313.57129195  .00001305  00000+0  38505-4 0  9991
2 59247  43.0004  21.5970 0001598 235.0903 124.9804 15.40697724 37901
STARLINK-31405          
1 59248U 24049T   24313.47513093 -.00003085  00000+0 -66739-4 0  9994
2 59248  43.0033  21.7327 0001728 272.2840  87.7819 15.40648434 37894
STARLINK-31426          
1 59249U 24049U   24313.46612966  .00012683  00000+0  31023-3 0  9992
2 59249  42.9986  21.6596 0001423 249.2184 110.8520 15.40714361 37894
STARLINK-31407          
1 59250U 24049V   24314.16147685 -.00001003  00000+0 -16736-4 0  9994
2 59250  42.9998  18.2873 0003245 249.5756 110.4752 15.40690704 37988
STARLINK-31418          
1 59251U 24049W   24314.25002315  .00268637  00000+0  49987-2 0  9993
2 59251  43.0016  16.6491 0005302  57.1540 183.1033 15.47124586 38123
STARLINK-31393          
1 59252U 24049X   24313.60909566  .00003493  00000+0  90917-4 0  9994
2 59252  43.0069  20.1595 0002934 264.1405  95.9117 15.40683516 37932
STARLINK-31425          
1 59253U 24049Y   24313.88426785  .00010423  00000+0  25699-3 0  9997
2 59253  42.9963  19.6470 0000632 138.3792 221.7113 15.40632557 37948
STARLINK-31659          
1 59254U 24050A   24314.16842164  .00000722  00000+0  36504-4 0  9994
2 59254  53.1615 274.0217 0001212 102.0593 258.0544 15.30192128 37401
STARLINK-31629          
1 59255U 24050B   24314.17633432  .00002566  00000+0  98751-4 0  9992
2 59255  53.1614 276.2057 0001114  86.3537 273.7591 15.30192030 37374
STARLINK-31652          
1 59256U 24050C   24314.16367148  .00002737  00000+0  10455-3 0  9994
2 59256  53.1606 276.1249 0001644  99.7324 260.3862 15.30190877 37378
STARLINK-31655          
1 59257U 24050D   24314.25002315  .01005182  00000+0  14056-1 0  9994
2 59257  53.1530 257.7383 0017129 143.0472 280.5635 15.53668912 37637
STARLINK-31637          
1 59258U 24050E   24313.63481985 -.00000867  00000+0 -17154-4 0  9991
2 59258  53.1611 278.5128 0001351 100.0682 260.0471 15.30198416 36139
STARLINK-31506          
1 59259U 24050F   24314.17317541  .00008729  00000+0  30650-3 0  9996
2 59259  53.1608 276.1861 0001772  97.3306 262.7896 15.30200350 37370
STARLINK-31288          
1 59260U 24050G   24314.19638919  .00002956  00000+0  11195-3 0  9994
2 59260  53.1635 276.3281 0001317  97.7863 262.3287 15.30185854 37378
STARLINK-31639          
1 59261U 24050H   24313.63798522  .00003179  00000+0  11940-3 0  9996
2 59261  53.1602 278.5340 0001326 100.2367 259.8784 15.30201215 36138
STARLINK-31673          
1 59262U 24050J   24314.17000404  .00003415  00000+0  12740-3 0  9994
2 59262  53.1606 276.1616 0001620 114.7026 245.4144 15.30195666 37372
STARLINK-31598          
1 59263U 24050K   24313.29463484  .00001452  00000+0  61154-4 0  9991
2 59263  53.1605 280.6313 0001381 132.8255 227.2862 15.30198765 36079
STARLINK-31645          
1 59264U 24050L   24314.18372150  .00001074  00000+0  48398-4 0  9995
2 59264  53.1591 276.2512 0001306 106.9840 253.1304 15.30198931 37373
STARLINK-31646          
1 59265U 24050M   24314.19005602  .00000357  00000+0  24202-4 0  9993
2 59265  53.1604 276.2936 0001669 109.4181 250.7000 15.30192594 37372
STARLINK-31648          
1 59266U 24050N   24314.16683855  .00008202  00000+0  28877-3 0  9991
2 59266  53.1618 276.1439 0001427 108.9306 251.1850 15.30197882 37373
STARLINK-31579          
1 59267U 24050P   24314.18055704  .00012985  00000+0  44952-3 0  9995
2 59267  53.1588 276.2310 0001203  81.2852 278.8284 15.30217835 37378
STARLINK-31627          
1 59268U 24050Q   24314.20270611 -.00006722  00000+0 -21499-3 0  9990
2 59268  53.1597 276.3607 0002423  99.7022 260.4252 15.30197607 37373
STARLINK-31609          
1 59269U 24050R   24314.18689582  .00006572  00000+0  23390-3 0  9992
2 59269  53.1586 276.2679 0001333 108.3312 251.7833 15.30188058 37376
STARLINK-31616          
1 59270U 24050S   24314.19322010  .00001798  00000+0  72834-4 0  9998
2 59270  53.1622 276.3110 0001466 116.2567 243.8585 15.30188719 37377
STARLINK-31630          
1 59271U 24050T   24314.18679770  .00000327  00000+0  18197-4 0  9995
2 59271  53.1604 269.8586 0002478  91.5690 268.5599 15.39611891 37468
STARLINK-31623          
1 59272U 24050U   24313.63165468  .00003309  00000+0  12380-3 0  9999
2 59272  53.1606 278.4923 0001219 107.4470 252.6664 15.30201215 36133
STARLINK-31595          
1 59273U 24050V   24314.19955206 -.00003268  00000+0 -98313-4 0  9996
2 59273  53.1590 276.3524 0000709  82.3386 277.7695 15.30189123 37361
STARLINK-31463          
1 59296U 24056A   24314.15545557  .00002532  00000+0  67840-4 0  9999
2 59296  43.0027 112.1888 0001298 280.6599  79.4112 15.40708435 36681
STARLINK-31487          
1 59297U 24056B   24313.78428131 -.00004045  00000+0 -89706-4 0  9994
2 59297  43.0017 113.6898 0002041 264.7846  95.2778 15.40671087 36746
STARLINK-31386          
1 59298U 24056C   24313.73513053  .00002109  00000+0  57763-4 0  9993
2 59298  43.0025 114.1874 0001812 281.1940  78.8713 15.40683162 36618
STARLINK-31409          
1 59299U 24056D   24313.88270175 -.00000536  00000+0 -55671-5 0  9996
2 59299  43.0030 113.5780 0001955 279.6483  80.4153 15.40697282 36756
STARLINK-31489          
1 59300U 24056E   24313.74408799 -.00000262  00000+0  98742-6 0  9991
2 59300  43.0011 114.2548 0001945 281.6057  78.4581 15.40683201 36610
STARLINK-31502          
1 59301U 24056F   24314.16203984 -.00000071  00000+0  55658-5 0  9994
2 59301  43.0021 111.3595 0001903 250.0954 109.9698 15.40703397 36429
STARLINK-31447          
1 59302U 24056G   24313.73286535  .00002933  00000+0  77388-4 0  9991
2 59302  43.0033 114.1705 0001357 272.2135  87.8566 15.40721584 36614
STARLINK-31504          
1 59303U 24056H   24313.79101364 -.00001750  00000+0 -34670-4 0  9999
2 59303  43.0020 113.7417 0001530 260.7289  99.3395 15.40671390 36629
STARLINK-31474          
1 59304U 24056J   24313.84238285 -.00000784  00000+0 -11518-4 0  9991
2 59304  43.0004 113.2615 0001138 242.1428 117.9313 15.40693381 36632
STARLINK-31500          
1 59305U 24056K   24313.92513919  .00002092  00000+0  57343-4 0  9999
2 59305  43.0000 113.0282 0001106 277.6321  82.4410 15.40691915 36597
STARLINK-31480          
1 59306U 24056L   24313.86926234  .00000464  00000+0  18366-4 0  9994
2 59306  43.0017 113.4706 0001441 253.5042 106.5657 15.40693131 36487
STARLINK-31282          
1 59307U 24056M   24313.91841053  .00002859  00000+0  75670-4 0  9997
2 59307  42.9999 112.9750 0001146 257.9163 102.1565 15.40703517 36651
STARLINK-31485          
1 59308U 24056N   24313.71496201  .00000703  00000+0  24096-4 0  9999
2 59308  42.9996 114.0238 0001833 247.3649 112.7013 15.40698470 36610
STARLINK-31455          
1 59309U 24056P   24314.14426370  .00003461  00000+0  90123-4 0  9996
2 59309  43.0051 112.1012 0002041 285.7703  74.2928 15.40684311 36473
STARLINK-31475          
1 59310U 24056Q   24314.14649320 -.00001629  00000+0 -31736-4 0  9991
2 59310  43.0011 112.1155 0001098 281.4672  78.6061 15.40717932 36795
STARLINK-31445          
1 59312U 24056S   24313.71048762 -.00000591  00000+0 -68969-5 0  9994
2 59312  43.0005 113.9915 0001365 260.6396  99.4306 15.40683308 36615
STARLINK-31495          
1 59313U 24056T   24313.44667278  .00000540  00000+0  20187-4 0  9995
2 59313  43.0030 115.4511 0002720 255.3096 104.7459 15.40718958 36571
STARLINK-31477          
1 59314U 24056U   24314.13753720  .00001830  00000+0  51067-4 0  9995
2 59314  43.0054 112.0451 0001264 279.7099  80.3615 15.40695375 36681
STARLINK-31446          
1 59315U 24056V   24313.74633233 -.00000769  00000+0 -11146-4 0  9994
2 59315  43.0041 114.2699 0002745 282.5593  77.4956 15.40677833 36619
STARLINK-31479          
1 59316U 24056W   24313.72154118 -.00000551  00000+0 -59060-5 0  9990
2 59316  42.9995 113.2059 0002220 288.9558  71.1057 15.40702850 36626
STARLINK-31349          
1 59317U 24056X   24313.67252894 -.00002062  00000+0 -42092-4 0  9990
2 59317  43.0040 114.5726 0002336 272.3603  87.6986 15.40703038 36678
STARLINK-31464          
1 59318U 24056Y   24313.74183985  .00004816  00000+0  12245-3 0  9996
2 59318  43.0021 114.2331 0001550 263.3696  96.6984 15.40707674 36618
STARLINK-31402          
1 59320U 24057A   24314.25002315  .00357005  00000+0  23815-2 0  9999
2 59320  42.9971  65.0937 0022161 359.9021  59.4423 15.73218842 36629
